[{"OBJECT_NAME":"YAM-7","OBJECT_ID":"2024-149AN","EPOCH":"2026-03-09T17:13:55.117920","MEAN_MOTION":15.30304554,"ECCENTRICITY":0.00019733,"INCLINATION":97.3828,"RA_OF_ASC_NODE":149.4631,"ARG_OF_PERICENTER":296.5121,"MEAN_ANOMALY":63.5918,"EPHEMERIS_TYPE":0,"CLASSIFICATION_TYPE":"U","NORAD_CAT_ID":60504,"ELEMENT_SET_NO":999,"REV_AT_EPOCH":8683,"BSTAR":0.00030984439,"MEAN_MOTION_DOT":9.009e-5,"MEAN_MOTION_DDOT":0},{"OBJECT_NAME":"STARLINK-33939","OBJECT_ID":"2025-087F","EPOCH":"2026-03-09T17:25:24.179520","MEAN_MOTION":15.30201362,"ECCENTRICITY":0.00010357,"INCLINATION":53.1584,"RA_OF_ASC_NODE":219.4976,"ARG_OF_PERICENTER":85.5171,"MEAN_ANOMALY":274.5948,"EPHEMERIS_TYPE":0,"CLASSIFICATION_TYPE":"U","NORAD_CAT_ID":63702,"ELEMENT_SET_NO":999,"REV_AT_EPOCH":4920,"BSTAR":0.0012188112,"MEAN_MOTION_DOT":0.00035915,"MEAN_MOTION_DDOT":0}]
